NUSHSAT1                
1 63211U 25052B   26068.64700493  .00023034  00000+0  74857-3 0  9997
2 63211  97.4095 325.7239 0005501  84.7512 275.4357 15.31903202 54882
STARLINK-34255          
1 65417U 25192P   26068.76973274  .00011822  00000+0  41068-3 0  9994
2 65417  53.1598 232.1756 0000838  84.1723 275.9373 15.30196109 29390
